full_name,a,e,i,om,w,q,ad,per_y,data_arc,condition_code,n_obs_used,n_del_obs_used,n_dop_obs_used,H
" 85621 (1998 HS107)",2.518961842353117,.1202712783129394,5.335327436191527,102.050211720562,185.3535221622026,2.216003081551791,2.821920603154444,3.99797970745706,6834,0,424,,,15.7
" 85639 (1998 OU)",2.306948636266881,.226833793451647,3.021831180815962,198.5301443034307,196.3391646794064,1.78365472580436,2.830242546729401,3.50400800772087,6801,0,502,,,16.0
" 85674 (1998 QD103)",2.303124433360992,.1798601940760432,5.469834786169403,45.67287191184101,350.200802157307,1.888884025795407,2.717364840926577,3.49529878729012,7269,0,576,,,15.6
" 85690 (1998 RG56)",2.369705363383804,.232752028558855,2.534413228952112,304.6187471072379,85.4339162699865,1.818151632969425,2.921259093798182,3.6479571597989,8072,0,373,,,16.3
" 85717 (1998 SY56)",2.347496667581048,.162558079534716,5.248248156483437,154.9463015895105,298.2183454962785,1.965892117584928,2.729101217577169,3.59679494268826,7134,0,1046,,,14.8
" 85748 (1998 SK138)",2.371889997102833,.219212875292931,2.682861564353152,17.2674552348473,8.347298156672904,1.851941170959379,2.891838823246287,3.65300290524405,6606,0,382,,,16.3
" 85752 (1998 SC153)",2.351204300330593,.185131663174403,1.705979220392324,309.1789665088595,112.1506401854911,1.915921937747582,2.786486662913604,3.60531946526364,7093,0,689,,,15.9
" 85835 (1998 XB81)",2.136832483902264,.156010299168175,3.301905566191353,95.79028980162204,266.5539651288988,1.803464608816397,2.470200358988131,3.12366116330791,8072,0,801,,,16.3
" 85838 (1998 YU2)",2.37207389094401,.08066195598395634,5.871891854849597,324.5915699398222,279.8044811213628,2.180737771161992,2.563410010726027,3.65342774224574,6624,0,662,,,15.5
" 85861 (1999 AJ33)",2.333522024642366,.05420931672952069,6.933120369285438,119.160755609693,352.7465527247952,2.207023390113215,2.460020659171517,3.56472521959074,6711,0,1060,,,15.0
" 85873 (1999 CE1)",2.280007983607495,.06445916645902124,4.788061833956042,97.23279348391161,91.20416959734065,2.133040569464242,2.426975397750748,3.44280760663509,6721,0,695,,,15.4
" 85899 (1999 CS53)",2.387617470612807,.17075477559411,3.004054241769454,57.86064385160551,40.29072887753993,1.979920385213741,2.795314556011873,3.68939643963618,6700,0,792,,,15.5
" 85956 (1999 FT35)",2.426994693507731,.1401043369472426,4.317960073114529,319.4930242462617,170.4489096951808,2.086962211199354,2.767027175816108,3.78104148518058,8429,0,690,,,15.2
" 86075 (1999 RJ58)",2.355187497527872,.1141877276677113,6.834981660838889,164.7814159780487,131.8427324776687,2.086253988953761,2.624121006101983,3.61448505254552,7630,0,593,,,15.9
" 86338 (1999 XK34)",2.236508198190359,.1288492842700042,2.163955516932101,231.3601704162654,196.0279437236144,1.948335717589535,2.524680678791184,3.34475216845311,7299,0,899,,,16.0
" 86346 (1999 XO84)",2.188056409872781,.06667780759724296,4.217857590170588,105.1758341151458,352.6952725874345,2.04216160556337,2.333951214182192,3.2366517499791,9513,0,905,,,15.4
" 86349 (1999 XO102)",2.226763041428756,.1142271600548836,2.496660986753905,290.1029864869702,187.5641999486165,1.972406223091174,2.481119859766339,3.3229148228694,6846,0,597,,,16.3
" 86350 (1999 XW102)",2.2281117965096,.09767393265751988,5.669044800049316,75.98330218692136,64.87154451870602,2.010483354943895,2.445740238075304,3.32593432478137,8385,0,704,,,16.0
" 86351 (1999 XS105)",2.27435924315767,.1619803638866225,5.376280506160083,227.787159763249,251.3735205675635,1.905957705342087,2.642760780973253,3.43002115387216,7201,0,862,,,15.3
" 86376 (2000 AX4)",2.252268740660185,.1593902502462562,.2786217092310488,309.3874298924653,128.9293001218413,1.893279062464537,2.611258418855832,3.38016979173439,8889,0,813,,,16.0
" 86384 (2000 AS47)",2.291129781959565,.09138808964386694,8.353831887908976,319.0188545531313,112.0409203153955,2.081747808060111,2.50051175585902,3.46802914243031,6778,0,486,,,15.9
" 86394 (2000 AH124)",2.212452488861413,.06207355792548054,4.254826479755206,144.7468260406471,342.2118627655602,2.0751176911367,2.349787286586126,3.29093369363706,8398,0,480,,,16.3
" 86399 (2000 AV140)",2.25215337574993,.119725268862229,5.622051571496456,189.9780808461769,283.5463473607341,1.982513707319293,2.521793044180566,3.37991008827355,7321,0,674,,,16.2
" 86400 (2000 AE141)",2.266667519446075,.09117113661402898,5.376640486343329,242.2762977380011,220.8481986464977,2.060012865372075,2.473322173520076,3.41263573662352,7322,0,712,,,15.6
" 86428 (2000 BQ27)",2.243935552053387,.1259881124687211,1.708186918463041,98.04594538079374,9.463198542106595,1.961226347348723,2.526644756758051,3.36142767533796,7299,0,780,,,15.9
" 86430 (2000 BV31)",2.350368317712588,.08482062529901092,6.474780729550231,317.2214262490542,111.9073748923255,2.151008607321222,2.549728028103954,3.60339680175053,9132,0,644,,,15.6
" 86438 (2000 CN16)",2.241731985970306,.08338861641870821,3.623621553489679,254.7357432740613,330.4442181790733,2.05479705727868,2.428666914661934,3.35647746013858,8355,0,576,,,16.2
" 86443 (2000 CG27)",2.268929214222096,.04898182345362646,4.209334927360509,177.85341542,335.2472986158087,2.157792924022294,2.380065504421898,3.41774473389609,7824,0,669,,,16.0
" 86444 (2000 CQ28)",2.318839400795047,.05334040564321055,6.214454238235641,303.6775384299723,153.4731155325657,2.19515156653518,2.442527235054913,3.53113408452913,6787,0,674,,,15.5
" 86452 (2000 CQ35)",2.244733622988179,.0713356297721498,5.379717243710596,262.4390762099063,339.968192310272,2.084604136321598,2.404863109654761,3.36322110668464,6789,0,739,,,15.6
" 86459 (2000 CS49)",2.323941744232817,.05248217725159959,3.916036014944034,253.4562144100235,235.1092112521606,2.201976221689599,2.445907266776035,3.54279528429384,6758,0,555,,,15.8
" 86462 (2000 CL56)",2.239714106303736,.2077836680885893,5.201356162036265,104.4019291055453,177.5708405581133,1.774338093826189,2.705090118781283,3.35194651491073,6734,0,799,,,15.4
" 86478 (2000 CL87)",2.30917794662479,.07128652636723413,7.143390742417382,.4772332253984051,84.64684068880076,2.144564672046087,2.473791221203494,3.5090883602331,7153,0,805,,,15.1
" 86482 (2000 CJ104)",2.243259634721327,.1222749014510631,8.049094712146168,8.602217915751128,75.18064758069239,1.968965283956629,2.517553985486025,3.3599089979504,7882,0,487,,,16.4
" 86483 (2000 CT111)",2.326336772069049,.2011886348799956,3.345804476024438,86.02536465970798,319.7916653079465,1.858304252625341,2.794369291512757,3.5482734416937,6795,0,523,,,16.1
" 86495 (2000 DT21)",2.190207689128902,.1736213218968181,2.934203910789173,211.4423032922657,71.67955557581604,1.809940934913766,2.570474443344037,3.24142629756446,6917,0,696,,,16.2
" 86497 (2000 DO29)",2.194090594100144,.1743604564626686,1.498138267722368,41.11559477416046,207.5748198544581,1.811527956592395,2.576653231607893,3.2500499502658,6905,0,322,,,17.0
" 86512 (2000 DN58)",2.266792390003121,.1368820724906298,1.443961520207335,234.4025958326223,345.8999131691073,1.956509149753506,2.577075630252736,3.41291774330779,9300,0,598,,,16.4
" 86528 (2000 DC78)",2.192075175822609,.05621262225396349,3.827473661267222,338.5890446964646,247.7692911752243,2.068852882011802,2.315297469633415,3.24557289791055,6348,0,566,,,16.4
" 86539 (2000 DQ103)",2.29154536972428,.104505672776306,5.018343300619335,80.94708690673821,340.1505562722067,2.052065879163815,2.531024860284745,3.46897278332308,7287,0,489,,,15.9
" 86543 (2000 DR106)",2.248309333090296,.1641697577808695,7.097850216194023,120.3983104595945,142.9363087673271,1.879204934460394,2.617413731720198,3.3712603845353,6271,0,572,,,15.8
" 86563 (2000 EP28)",2.277067602478455,.202099353979108,8.293361769570236,73.16361571642571,344.2207029895003,1.816873711050803,2.737261493906107,3.43614979967507,7768,0,643,,,15.7
" 86570 (2000 EH38)",2.270930522136059,.1340329368966145,5.597244029411924,343.6364321671159,251.2283210449792,1.966551034766001,2.575310009506117,3.42226766102074,20673,0,718,,,15.7
" 86584 (2000 ES57)",2.343517734404442,.150558800051489,4.007578914688271,330.4455857020118,92.29114595452671,1.990680516413126,2.69635495239576,3.58765413695427,9111,0,880,,,15.4
" 86601 (2000 EU75)",2.144105762048599,.1574892820987495,4.856192442365791,50.85865977495822,313.5402921474272,1.806432084839773,2.481779439257425,3.13962304505538,10312,0,1153,,,15.6
" 86607 (2000 ET84)",2.25916580534059,.1425296983312151,5.397944813361323,258.0633726589749,315.6091505252458,1.937167584625199,2.581164026055981,3.39570818290575,6294,0,634,,,16.0
" 86610 (2000 EB92)",2.281077219044786,.1390519256228095,6.117187239527305,205.4937796955777,40.65592949673533,1.963889039242285,2.598265398847286,3.4452297056834,8217,0,623,,,16.2
" 86620 (2000 EY120)",2.312567203768858,.09146267197370432,7.091174982378401,130.9230466713692,287.4392788413319,2.1010536281934,2.524080779344316,3.51681680257121,7159,0,582,,,15.8
" 86621 (2000 EB121)",2.227307210919775,.1903447473981169,4.974850939002256,112.6156724475802,137.1144011812396,1.803350982479246,2.651263439360303,3.32413296281204,9406,0,494,,,16.4
" 86660 (2000 EH200)",2.245011628678689,.1074454870678457,4.266805221369554,271.8414714229071,342.0027722406242,2.003795260762329,2.486227996595048,3.36384591816241,6742,0,722,,,15.6
" 86662 (2000 FA6)",2.470730944386856,.2272810691959185,8.459412527488681,14.88324230597396,340.1286572458012,1.90918057365117,3.032281315122542,3.88370634040716,6454,0,517,,,15.8
" 86663 (2000 FS6)",2.2671731786938,.09906793555725509,3.489206388970769,203.6961230314339,54.4282256731828,2.042569012329825,2.491777345057775,3.4137777614517,20673,0,426,,,16.6
" 86665 (2000 FD10)",2.256896344164707,.1154639089570155,4.578037645648989,23.45037796728483,240.1800584372289,1.996306270156653,2.517486418172762,3.39059269371287,6242,0,612,,,16.2
" 86673 (2000 FB23)",2.358219989733362,.1365684927586668,10.00323927791704,80.42348451843239,7.361774600655167,2.036161440142118,2.680278539324605,3.62146820691953,7092,0,515,,,15.6
